{"type": "FeatureCollection", "features": [ {"type": "Feature", "properties": {"norad_id": 42741, "name": "EUTELSAT 172B", "group": "eutelsat", "lat": 0.012197251621819147, "lon": 55.72003334700181, "alt_km": 35786.91321516889, "timestamp": "2025-12-11T10:53:15.557100+00:00", "meta": {"OBJECT_NAME": "EUTELSAT 172B", "OBJECT_ID": "2017-029B", "EPOCH": "2025-12-11T03:42:38.635776", "MEAN_MOTION": 1.00269624, "ECCENTRICITY": 6.2e-06, "INCLINATION": 0.031, "RA_OF_ASC_NODE": 156.9474, "ARG_OF_PERICENTER": 103.8812, "MEAN_ANOMALY": 46.9489, "EPHEMERIS_TYPE": 0, "CLASSIFICATION_TYPE": "U", "NORAD_CAT_ID": 42741, "ELEMENT_SET_NO": 999, "REV_AT_EPOCH": 3184, "BSTAR": 0, "MEAN_MOTION_DOT": 0, "MEAN_MOTION_DDOT": 0}, "tle": {"line1": "1 42741U 17029B   25345.15461384  .00000000  00000+0  00000+0 0  9996", "line2": "2 42741   0.0310 156.9474 0000062 103.8812  46.9489  1.00269624 31847"}}, "geometry": {"type": "Point", "coordinates": [55.72003334700181, 0.012197251621819147]}}, {"type": "Feature", "properties": {"norad_id": 44334, "name": "EUTELSAT 7C", "group": "eutelsat", "lat": 0.04795758982817866, "lon": -109.28626143488229, "alt_km": 35772.269138616444, "timestamp": "2025-12-11T10:53:15.557113+00:00", "meta": {"OBJECT_NAME": "EUTELSAT 7C", "OBJECT_ID": "2019-034B", "EPOCH": "2025-12-11T03:16:21.114336", "MEAN_MOTION": 1.00271216, "ECCENTRICITY": 0.000332, "INCLINATION": 0.0726, "RA_OF_ASC_NODE": 179.9554, "ARG_OF_PERICENTER": 63.7135, "MEAN_ANOMALY": 252.5053, "EPHEMERIS_TYPE": 0, "CLASSIFICATION_TYPE": "U", "NORAD_CAT_ID": 44334, "ELEMENT_SET_NO": 999, "REV_AT_EPOCH": 495, "BSTAR": 0, "MEAN_MOTION_DOT": 5.4e-07, "MEAN_MOTION_DDOT": 0}, "tle": {"line1": "1 44334U 19034B   25345.13635549  .00000054  00000+0  00000+0 0  9997", "line2": "2 44334   0.0726 179.9554 0003320  63.7135 252.5053  1.00271216  4958"}}, "geometry": {"type": "Point", "coordinates": [-109.28626143488229, 0.04795758982817866]}}, {"type": "Feature", "properties": {"norad_id": 44624, "name": "EUTELSAT 5 WEST B", "group": "eutelsat", "lat": -0.0781991969060188, "lon": -121.29131627612009, "alt_km": 35772.75067654695, "timestamp": "2025-12-11T10:53:15.557125+00:00", "meta": {"OBJECT_NAME": "EUTELSAT 5 WEST B", "OBJECT_ID": "2019-067A", "EPOCH": "2025-12-11T03:12:51.448320", "MEAN_MOTION": 1.00271544, "ECCENTRICITY": 0.0003422, "INCLINATION": 0.0629, "RA_OF_ASC_NODE": 345.694, "ARG_OF_PERICENTER": 275.322, "MEAN_ANOMALY": 222.2965, "EPHEMERIS_TYPE": 0, "CLASSIFICATION_TYPE": "U", "NORAD_CAT_ID": 44624, "ELEMENT_SET_NO": 999, "REV_AT_EPOCH": 2255, "BSTAR": 0, "MEAN_MOTION_DOT": -3.6e-07, "MEAN_MOTION_DDOT": 0}, "tle": {"line1": "1 44624U 19067A   25345.13392880 -.00000036  00000+0  00000+0 0  9994", "line2": "2 44624   0.0629 345.6940 0003422 275.3220 222.2965  1.00271544 22558"}}, "geometry": {"type": "Point", "coordinates": [-121.29131627612009, -0.0781991969060188]}}, {"type": "Feature", "properties": {"norad_id": 45027, "name": "EUTELSAT KONNECT", "group": "eutelsat", "lat": 0.008556856685517228, "lon": -109.09305899578828, "alt_km": 35781.22014243289, "timestamp": "2025-12-11T10:53:15.557137+00:00", "meta": {"OBJECT_NAME": "EUTELSAT KONNECT", "OBJECT_ID": "2020-005B", "EPOCH": "2025-12-11T03:16:21.114336", "MEAN_MOTION": 1.00269203, "ECCENTRICITY": 0.0001613, "INCLINATION": 0.0694, "RA_OF_ASC_NODE": 96.3058, "ARG_OF_PERICENTER": 190.0846, "MEAN_ANOMALY": 209.9945, "EPHEMERIS_TYPE": 0, "CLASSIFICATION_TYPE": "U", "NORAD_CAT_ID": 45027, "ELEMENT_SET_NO": 999, "REV_AT_EPOCH": 2245, "BSTAR": 0, "MEAN_MOTION_DOT": 5.5e-07, "MEAN_MOTION_DDOT": 0}, "tle": {"line1": "1 45027U 20005B   25345.13635549  .00000055  00000+0  00000+0 0  9998", "line2": "2 45027   0.0694  96.3058 0001613 190.0846 209.9945  1.00269203 22453"}}, "geometry": {"type": "Point", "coordinates": [-109.09305899578828, 0.008556856685517228]}}, {"type": "Feature", "properties": {"norad_id": 49056, "name": "EUTELSAT QUANTUM", "group": "eutelsat", "lat": -0.029968073744246038, "lon": -68.56367314240089, "alt_km": 35771.23144127311, "timestamp": "2025-12-11T10:53:15.557149+00:00", "meta": {"OBJECT_NAME": "EUTELSAT QUANTUM", "OBJECT_ID": "2021-069B", "EPOCH": "2025-12-11T03:27:57.501792", "MEAN_MOTION": 1.00271833, "ECCENTRICITY": 0.0003689, "INCLINATION": 0.0182, "RA_OF_ASC_NODE": 27.6209, "ARG_OF_PERICENTER": 245.4753, "MEAN_ANOMALY": 266.7006, "EPHEMERIS_TYPE": 0, "CLASSIFICATION_TYPE": "U", "NORAD_CAT_ID": 49056, "ELEMENT_SET_NO": 999, "REV_AT_EPOCH": 1604, "BSTAR": 0, "MEAN_MOTION_DOT": 1.32e-06, "MEAN_MOTION_DDOT": 0}, "tle": {"line1": "1 49056U 21069B   25345.14441553  .00000132  00000+0  00000+0 0  9992", "line2": "2 49056   0.0182  27.6209 0003689 245.4753 266.7006  1.00271833 16042"}}, "geometry": {"type": "Point", "coordinates": [-68.56367314240089, -0.029968073744246038]}}, {"type": "Feature", "properties": {"norad_id": 53765, "name": "EUTELSAT KONNECT VHTS", "group": "eutelsat", "lat": 0.015571641421766633, "lon": -113.56871432389637, "alt_km": 35775.80734872396, "timestamp": "2025-12-11T10:53:15.557161+00:00", "meta": {"OBJECT_NAME": "EUTELSAT KONNECT VHTS", "OBJECT_ID": "2022-110A", "EPOCH": "2025-12-11T03:15:06.233184", "MEAN_MOTION": 1.00271355, "ECCENTRICITY": 0.0002463, "INCLINATION": 0.0669, "RA_OF_ASC_NODE": 100.3786, "ARG_OF_PERICENTER": 140.773, "MEAN_ANOMALY": 250.4291, "EPHEMERIS_TYPE": 0, "CLASSIFICATION_TYPE": "U", "NORAD_CAT_ID": 53765, "ELEMENT_SET_NO": 999, "REV_AT_EPOCH": 494, "BSTAR": 0, "MEAN_MOTION_DOT": 2.3e-07, "MEAN_MOTION_DDOT": 0}, "tle": {"line1": "1 53765U 22110A   25345.13548881  .00000023  00000+0  00000+0 0  9992", "line2": "2 53765   0.0669 100.3786 0002463 140.7730 250.4291  1.00271355  4945"}}, "geometry": {"type": "Point", "coordinates": [-113.56871432389637, 0.015571641421766633]}}, {"type": "Feature", "properties": {"norad_id": 54048, "name": "EUTELSAT HOTBIRD 13F", "group": "eutelsat", "lat": -0.04434229689478771, "lon": -103.28983501393866, "alt_km": 35788.39854845732, "timestamp": "2025-12-11T10:53:15.557179+00:00", "meta": {"OBJECT_NAME": "EUTELSAT HOTBIRD 13F", "OBJECT_ID": "2022-134A", "EPOCH": "2025-12-11T03:18:05.946048", "MEAN_MOTION": 1.00269036, "ECCENTRICITY": 0.0002178, "INCLINATION": 0.0501, "RA_OF_ASC_NODE": 291.9812, "ARG_OF_PERICENTER": 64.5359, "MEAN_ANOMALY": 146.1232, "EPHEMERIS_TYPE": 0, "CLASSIFICATION_TYPE": "U", "NORAD_CAT_ID": 54048, "ELEMENT_SET_NO": 999, "REV_AT_EPOCH": 1149, "BSTAR": 0, "MEAN_MOTION_DOT": 9.3e-07, "MEAN_MOTION_DDOT": 0}, "tle": {"line1": "1 54048U 22134A   25345.13756882  .00000093  00000+0  00000+0 0  9992", "line2": "2 54048   0.0501 291.9812 0002178  64.5359 146.1232  1.00269036 11492"}}, "geometry": {"type": "Point", "coordinates": [-103.28983501393866, -0.04434229689478771]}}, {"type": "Feature", "properties": {"norad_id": 54225, "name": "EUTELSAT HOTBIRD 13G", "group": "eutelsat", "lat": -0.00241466184533968, "lon": -103.2637758804815, "alt_km": 35784.117238678264, "timestamp": "2025-12-11T10:53:15.557192+00:00", "meta": {"OBJECT_NAME": "EUTELSAT HOTBIRD 13G", "OBJECT_ID": "2022-146A", "EPOCH": "2025-12-11T03:18:05.946048", "MEAN_MOTION": 1.00270695, "ECCENTRICITY": 0.0001883, "INCLINATION": 0.0498, "RA_OF_ASC_NODE": 236.005, "ARG_OF_PERICENTER": 307.0649, "MEAN_ANOMALY": 319.5494, "EPHEMERIS_TYPE": 0, "CLASSIFICATION_TYPE": "U", "NORAD_CAT_ID": 54225, "ELEMENT_SET_NO": 999, "REV_AT_EPOCH": 558, "BSTAR": 0, "MEAN_MOTION_DOT": 9.3e-07, "MEAN_MOTION_DDOT": 0}, "tle": {"line1": "1 54225U 22146A   25345.13756882  .00000093  00000+0  00000+0 0  9992", "line2": "2 54225   0.0498 236.0050 0001883 307.0649 319.5494  1.00270695  5589"}}, "geometry": {"type": "Point", "coordinates": [-103.2637758804815, -0.00241466184533968]}}, {"type": "Feature", "properties": {"norad_id": 54259, "name": "EUTELSAT 10B", "group": "eutelsat", "lat": 0.004900227021985671, "lon": -106.30176214345501, "alt_km": 35786.44535862737, "timestamp": "2025-12-11T10:53:15.557203+00:00", "meta": {"OBJECT_NAME": "EUTELSAT 10B", "OBJECT_ID": "2022-157A", "EPOCH": "2025-12-10T23:51:46.763136", "MEAN_MOTION": 1.00269612, "ECCENTRICITY": 7.44e-05, "INCLINATION": 0.0623, "RA_OF_ASC_NODE": 98.8019, "ARG_OF_PERICENTER": 68.7015, "MEAN_ANOMALY": 280.371, "EPHEMERIS_TYPE": 0, "CLASSIFICATION_TYPE": "U", "NORAD_CAT_ID": 54259, "ELEMENT_SET_NO": 999, "REV_AT_EPOCH": 1114, "BSTAR": 0, "MEAN_MOTION_DOT": 7.3e-07, "MEAN_MOTION_DDOT": 0}, "tle": {"line1": "1 54259U 22157A   25344.99429124  .00000073  00000+0  00000+0 0  9998", "line2": "2 54259   0.0623  98.8019 0000744  68.7015 280.3710  1.00269612 11140"}}, "geometry": {"type": "Point", "coordinates": [-106.30176214345501, 0.004900227021985671]}}, {"type": "Feature", "properties": {"norad_id": 59346, "name": "EUTELSAT 36D", "group": "eutelsat", "lat": -0.0326096298392704, "lon": -80.43559022637464, "alt_km": 35785.03805023475, "timestamp": "2025-12-11T10:53:15.557215+00:00", "meta": {"OBJECT_NAME": "EUTELSAT 36D", "OBJECT_ID": "2024-059A", "EPOCH": "2025-12-10T23:59:08.558304", "MEAN_MOTION": 1.00270665, "ECCENTRICITY": 6.53e-05, "INCLINATION": 0.0175, "RA_OF_ASC_NODE": 350.3136, "ARG_OF_PERICENTER": 350.9319, "MEAN_ANOMALY": 134.3543, "EPHEMERIS_TYPE": 0, "CLASSIFICATION_TYPE": "U", "NORAD_CAT_ID": 59346, "ELEMENT_SET_NO": 999, "REV_AT_EPOCH": 626, "BSTAR": 0, "MEAN_MOTION_DOT": 0, "MEAN_MOTION_DDOT": 0}, "tle": {"line1": "1 59346U 24059A   25344.99940461  .00000000  00000+0  00000+0 0  9995", "line2": "2 59346   0.0175 350.3136 0000653 350.9319 134.3543  1.00270665  6261"}}, "geometry": {"type": "Point", "coordinates": [-80.43559022637464, -0.0326096298392704]}}]}